ONEWEB-0668             
1 56711U 23068B   24271.18975092  .00000156  00000+0  37485-3 0  9997
2 56711  87.9162 353.8470 0002116  84.2854 275.8519 13.16596668 69841
ONEWEB-0676             
1 56712U 23068C   24270.94198609  .00000063  00000+0  13045-3 0  9995
2 56712  87.9173 353.9093 0001499 115.1041 245.0245 13.16595461 69037
ONEWEB-0677             
1 56713U 23068D   24270.63265687  .00000133  00000+0  29607-3 0  9992
2 56713  87.9247  39.4851 0001508  94.0926 266.0380 13.20771326 66835
ONEWEB-0678             
1 56714U 23068E   24270.62223934  .00000264  00000+0  66801-3 0  9993
2 56714  87.9116  24.2551 0001954 110.1381 249.9959 13.15552697 66643
ONEWEB-0679             
1 56715U 23068F   24271.21508212  .00000083  00000+0  18262-3 0  9992
2 56715  87.9165 353.8554 0001382  82.0226 278.1062 13.16597297 69796
ONEWEB-0680             
1 56716U 23068G   24271.27125773 -.00000870  00000+0 -21380-2 0  9996
2 56716  87.9371   9.0541 0002164  76.6829 283.4546 13.21830070 68845
ONEWEB-0681             
1 56717U 23068H   24271.50859406  .00000088  00000+0  18127-3 0  9995
2 56717  87.9368   8.9854 0000896 122.1587 237.9634 13.21824069 68860
ONEWEB-0682             
1 56718U 23068J   24270.57231775 -.00000013  00000+0 -67574-4 0  9996
2 56718  87.9110  24.3032 0001817  82.9349 277.1988 13.15547954 67505
